NORAD_CAT_ID,OBJECT_NAME,OBJECT_TYPE,EPOCH,MEAN_MOTION,ECCENTRICITY,INCLINATION,RA_OF_ASC_NODE,ARG_OF_PERICENTER,MEAN_ANOMALY,BSTAR,MEAN_MOTION_DOT,MEAN_MOTION_DDOT,TLE_LINE0,TLE_LINE1,TLE_LINE2,SEMIMAJOR_AXIS,PERIOD,APOGEE,PERIGEE,DECAYED
52126.0,STARLINK-3732,PAYLOAD,2023-02-24 20:07:18,15.08842747,0.0001494,53.2169,6.9507,78.9767,281.1393,0.00011703,1.575e-05,0.0,0 STARLINK-3732,1 52126U 22029AQ  23055.83841026  .00001575  00000-0  11703-3 0  9991,2 52126  53.2169   6.9507 0001494  78.9767 281.1393 15.08842747 53521,6917.872,95.437,540.771,538.703,0.0
52126.0,STARLINK-3732,PAYLOAD,2023-02-25 07:15:00,15.08843142,0.0001458,53.2177,4.8695,82.4807,277.6351,0.00038568,5.856e-05,0.0,0 STARLINK-3732,1 52126U 22029AQ  23056.30209101  .00005856  00000-0  38568-3 0  9990,2 52126  53.2177   4.8695 0001458  82.4807 277.6351 15.08843142 53591,6917.871,95.437,540.744,538.727,0.0
52126.0,STARLINK-3732,PAYLOAD,2023-02-26 02:19:38,15.08844159,0.0001261,53.2167,1.3007,90.3551,269.7586,0.00037439,5.676e-05,0.0,0 STARLINK-3732,1 52126U 22029AQ  23057.09697080  .00005676  00000-0  37439-3 0  9990,2 52126  53.2167   1.3007 0001261  90.3551 269.7586 15.08844159 53710,6917.868,95.437,540.605,538.86,0.0
52126.0,STARLINK-3732,PAYLOAD,2023-02-26 05:30:24,15.08857734,0.0001144,53.2156,0.7053,100.434,259.6781,0.00095458,0.00014944,0.0,0 STARLINK-3732,1 52126U 22029AQ  23057.22944808  .00014944  00000-0  95458-3 0  9991,2 52126  53.2156   0.7053 0001144 100.4340 259.6781 15.08857734 53731,6917.826,95.436,540.483,538.9,0.0
52126.0,STARLINK-3732,PAYLOAD,2023-02-26 21:24:15,15.08850019,0.0001112,53.216,357.7313,116.8557,243.2549,0.0003635,5.504e-05,0.0,0 STARLINK-3732,1 52126U 22029AQ  23057.89184597  .00005504  00000-0  36350-3 0  9993,2 52126  53.2160 357.7313 0001112 116.8557 243.2549 15.08850019 53837,6917.85,95.437,540.484,538.946,0.0
52126.0,STARLINK-3732,PAYLOAD,2023-02-27 02:10:24,15.08853607,9.61e-05,53.2176,356.8398,100.9196,259.1905,0.0004378,6.689e-05,0.0,0 STARLINK-3732,1 52126U 22029AQ  23058.09056443  .00006689  00000-0  43780-3 0  9994,2 52126  53.2176 356.8398 0000961 100.9196 259.1905 15.08853607 53862,6917.839,95.437,540.369,539.039,0.0
52126.0,STARLINK-3732,PAYLOAD,2023-02-27 05:21:10,15.08874252,0.0001258,53.216,356.2446,96.7261,263.3874,0.0010676,0.0001676,0.0,0 STARLINK-3732,1 52126U 22029AQ  23058.22303975  .00016760  00000-0  10676-2 0  9992,2 52126  53.2160 356.2446 0001258  96.7261 263.3874 15.08874252 53881,6917.776,95.435,540.511,538.77,0.0
52126.0,STARLINK-3732,PAYLOAD,2023-02-28 02:01:10,15.08875124,9.24e-05,53.2168,352.3797,99.5581,260.5516,0.0010624,0.00016677,0.0,0 STARLINK-3732,1 52126U 22029AQ  23059.08414746  .00016677  00000-0  10624-2 0  9996,2 52126  53.2168 352.3797 0000924  99.5581 260.5516 15.08875124 54017,6917.773,95.435,540.277,538.999,0.0
52126.0,STARLINK-3732,PAYLOAD,2023-02-28 05:11:56,15.08887945,0.0001574,53.2164,351.7837,99.2441,260.8729,0.0012632,0.00019899,0.0,0 STARLINK-3732,1 52126U 22029AQ  23059.21662257  .00019899  00000-0  12632-2 0  9993,2 52126  53.2164 351.7837 0001574  99.2441 260.8729 15.08887945 54030,6917.734,95.435,540.688,538.51,0.0
52126.0,STARLINK-3732,PAYLOAD,2023-02-28 14:44:15,15.0882359,0.0002329,53.2145,350.0002,102.6681,257.4571,-0.00071667,-0.00011671,0.0,0 STARLINK-3732,1 52126U 22029AQ  23059.61406510 -.00011671  00000-0 -71667-3 0  9991,2 52126  53.2145 350.0002 0002329 102.6681 257.4571 15.08823590 54098,6917.931,95.439,541.407,538.184,0.0
52126.0,STARLINK-3732,PAYLOAD,2023-03-01 01:51:59,15.08801308,0.0001386,53.2163,347.9181,122.8246,237.288,-0.0011172,-0.00018005,0.0,0 STARLINK-3732,1 52126U 22029AQ  23060.07777055 -.00018005  00000-0 -11172-2 0  9990,2 52126  53.2163 347.9181 0001386 122.8246 237.2880 15.08801308 54164,6917.999,95.44,540.822,538.905,0.0
52126.0,STARLINK-3732,PAYLOAD,2023-03-01 06:38:09,15.08795257,0.0001593,53.2159,347.0252,125.9384,234.1756,0.00031886,4.784e-05,0.0,0 STARLINK-3732,1 52126U 22029AQ  23060.27649584  .00004784  00000-0  31886-3 0  9999,2 52126  53.2159 347.0252 0001593 125.9384 234.1756 15.08795257 54192,6918.017,95.44,540.984,538.78,0.0
52126.0,STARLINK-3732,PAYLOAD,2023-03-02 03:18:10,15.08858164,0.0001792,53.2171,343.1635,131.0064,229.1084,0.0022041,0.00034982,0.0,0 STARLINK-3732,1 52126U 22029AQ  23061.13762556  .00034982  00000-0  22041-2 0  9995,2 52126  53.2171 343.1635 0001792 131.0064 229.1084 15.08858164 54322,6917.825,95.436,540.93,538.45,0.0
52126.0,STARLINK-3732,PAYLOAD,2023-03-02 19:12:01,15.08874572,0.0001968,53.217,340.1889,127.8307,232.2863,0.0019414,0.00030774,0.0,0 STARLINK-3732,1 52126U 22029AQ  23061.80002147  .00030774  00000-0  19414-2 0  9997,2 52126  53.2170 340.1889 0001968 127.8307 232.2863 15.08874572 54429,6917.775,95.435,541.001,538.278,0.0
52126.0,STARLINK-3732,PAYLOAD,2023-03-03 04:44:19,15.08895917,0.0001429,53.2167,338.4047,129.0156,231.0964,0.0027793,0.00044291,0.0,0 STARLINK-3732,1 52126U 22029AQ  23062.19745190  .00044291  00000-0  27793-2 0  9990,2 52126  53.2167 338.4047 0001429 129.0156 231.0964 15.08895917 54480,6917.709,95.434,540.563,538.586,0.0
52126.0,STARLINK-3732,PAYLOAD,2023-03-04 02:59:42,15.08888459,0.0001169,53.2166,334.2416,117.9398,242.1713,0.0022695,0.00036064,0.0,0 STARLINK-3732,1 52126U 22029AQ  23063.12479458  .00036064  00000-0  22695-2 0  9990,2 52126  53.2166 334.2416 0001169 117.9398 242.1713 15.08888459 54622,6917.732,95.434,540.406,538.789,0.0
52126.0,STARLINK-3732,PAYLOAD,2023-03-05 01:15:07,15.08826961,0.0001059,53.2165,330.079,72.2141,287.8967,0.0014403,0.000227,0.0,0 STARLINK-3732,1 52126U 22029AQ  23064.05217560  .00022700  00000-0  14403-2 0  9997,2 52126  53.2165 330.0790 0001059  72.2141 287.8967 15.08826961 54769,6917.92,95.438,540.518,539.053,0.0
52126.0,STARLINK-3732,PAYLOAD,2023-03-05 06:01:17,15.08839559,0.0001066,53.2164,329.1869,71.8321,288.2788,0.0016173,0.00025545,0.0,0 STARLINK-3732,1 52126U 22029AQ  23064.25089620  .00025545  00000-0  16173-2 0  9999,2 52126  53.2164 329.1869 0001066  71.8321 288.2788 15.08839559 54793,6917.882,95.438,540.484,539.009,0.0
52126.0,STARLINK-3732,PAYLOAD,2023-03-05 21:55:09,15.0883611,0.000132,53.2172,326.2097,108.2779,251.8356,0.0024567,0.00039023,0.0,0 STARLINK-3732,1 52126U 22029AQ  23064.91329975  .00039023  00000-0  24567-2 0  9994,2 52126  53.2172 326.2097 0001320 108.2779 251.8356 15.08836110 54896,6917.892,95.438,540.67,538.844,0.0
52126.0,STARLINK-3732,PAYLOAD,2023-03-06 02:41:18,15.08885823,0.0001119,53.2167,325.3184,89.3037,270.8083,0.0033577,0.00053624,0.0,0 STARLINK-3732,1 52126U 22029AQ  23065.11201433  .00053624  00000-0  33577-2 0  9999,2 52126  53.2167 325.3184 0001119  89.3037 270.8083 15.08885823 54926,6917.74,95.435,540.379,538.831,0.0
52126.0,STARLINK-3732,PAYLOAD,2023-03-06 16:59:46,15.08852548,0.0001671,53.2174,322.6441,80.1007,280.0174,0.0012782,0.0002012,0.0,0 STARLINK-3732,1 52126U 22029AQ  23065.70818143  .00020120  00000-0  12782-2 0  9996,2 52126  53.2174 322.6441 0001671  80.1007 280.0174 15.08852548 55012,6917.842,95.437,540.863,538.551,0.0
52126.0,STARLINK-3732,PAYLOAD,2023-03-07 02:32:05,15.08853341,0.0001727,53.2176,320.8586,75.2769,284.8415,0.0016561,0.00026177,0.0,0 STARLINK-3732,1 52126U 22029AQ  23066.10562266  .00026177  00000-0  16561-2 0  9990,2 52126  53.2176 320.8586 0001727  75.2769 284.8415 15.08853341 55074,6917.84,95.437,540.899,538.51,0.0
52126.0,STARLINK-3732,PAYLOAD,2023-03-07 16:50:33,15.08858791,0.0001683,53.216,318.1824,69.0486,291.0686,0.0012776,0.00020114,0.0,0 STARLINK-3732,1 52126U 22029AQ  23066.70178124  .00020114  00000-0  12776-2 0  9991,2 52126  53.2160 318.1824 0001683  69.0486 291.0686 15.08858791 55164,6917.823,95.436,540.852,538.524,0.0
52126.0,STARLINK-3732,PAYLOAD,2023-03-07 23:12:05,15.0887538,0.0001609,53.2154,316.9941,74.8848,285.2322,0.0020186,0.00032016,0.0,0 STARLINK-3732,1 52126U 22029AQ  23066.96673599  .00032016  00000-0  20186-2 0  9993,2 52126  53.2154 316.9941 0001609  74.8848 285.2322 15.08875380 55207,6917.772,95.435,540.75,538.524,0.0
52126.0,STARLINK-3732,PAYLOAD,2023-03-08 02:22:51,15.08890037,0.00016,53.2159,316.3995,77.3945,282.7226,0.0022929,0.00036443,0.0,0 STARLINK-3732,1 52126U 22029AQ  23067.09921082  .00036443  00000-0  22929-2 0  9996,2 52126  53.2159 316.3995 0001600  77.3945 282.7226 15.08890037 55225,6917.727,95.434,540.699,538.486,0.0
52126.0,STARLINK-3732,PAYLOAD,2023-03-08 16:41:20,15.08851861,0.0003789,53.2146,313.7217,88.5644,271.5782,0.0021461,0.00034047,0.0,0 STARLINK-3732,1 52126U 22029AQ  23067.69538117  .00034047  00000-0  21461-2 0  9993,2 52126  53.2146 313.7217 0003789  88.5644 271.5782 15.08851861 55314,6917.844,95.437,542.33,537.088,0.0
52126.0,STARLINK-3732,PAYLOAD,2023-03-09 19:42:54,15.08868089,0.0001589,53.2152,308.6671,48.0391,312.0737,0.0020054,0.00031797,0.0,0 STARLINK-3732,1 52126U 22029AQ  23068.82146590  .00031797  00000-0  20054-2 0  9995,2 52126  53.2152 308.6671 0001589  48.0391 312.0737 15.08868089 55483,6917.795,95.436,540.759,538.56,0.0
52126.0,STARLINK-3732,PAYLOAD,2023-03-09 21:18:17,15.08868931,0.0001871,53.2152,308.3712,36.5011,323.6108,0.0018012,0.00028517,0.0,0 STARLINK-3732,1 52126U 22029AQ  23068.88770541  .00028517  00000-0  18012-2 0  9997,2 52126  53.2152 308.3712 0001871  36.5011 323.6108 15.08868931 55498,6917.792,95.436,540.951,538.363,0.0
52126.0,STARLINK-3732,PAYLOAD,2023-03-10 08:25:59,15.0884268,0.0001992,53.214,306.2871,70.0053,290.1154,0.0016785,0.00026529,0.0,0 STARLINK-3732,1 52126U 22029AQ  23069.35138294  .00026529  00000-0  16785-2 0  9999,2 52126  53.2140 306.2871 0001992  70.0053 290.1154 15.08842680 55561,6917.872,95.437,541.115,538.359,0.0
52126.0,STARLINK-3732,PAYLOAD,2023-03-10 19:33:42,15.08823735,0.0001297,53.2155,304.2074,84.4174,275.6966,0.00086828,0.00013552,0.0,0 STARLINK-3732,1 52126U 22029AQ  23069.81507013  .00013552  00000-0  86828-3 0  9997,2 52126  53.2155 304.2074 0001297  84.4174 275.6966 15.08823735 55638,6917.93,95.439,540.692,538.898,0.0
